[{"OBJECT_NAME":"LEMUR-2-ALEXANDER","OBJECT_ID":"2018-046F","EPOCH":"2023-01-02T17:28:35.460480","MEAN_MOTION":16.02478133,"ECCENTRICITY":0.0021551,"INCLINATION":51.6266,"RA_OF_ASC_NODE":240.2177,"ARG_OF_PERICENTER":193.738,"MEAN_ANOMALY":166.3047,"EPHEMERIS_TYPE":0,"CLASSIFICATION_TYPE":"U","NORAD_CAT_ID":43559,"ELEMENT_SET_NO":999,"REV_AT_EPOCH":25048,"BSTAR":0.0011021,"MEAN_MOTION_DOT":0.00685656,"MEAN_MOTION_DDOT":0.00023174},{"OBJECT_NAME":"LEMUR-2-YUASA","OBJECT_ID":"2018-046G","EPOCH":"2023-01-02T02:47:54.875904","MEAN_MOTION":15.89844463,"ECCENTRICITY":0.0019089,"INCLINATION":51.6344,"RA_OF_ASC_NODE":248.9254,"ARG_OF_PERICENTER":180.4173,"MEAN_ANOMALY":179.682,"EPHEMERIS_TYPE":0,"CLASSIFICATION_TYPE":"U","NORAD_CAT_ID":43560,"ELEMENT_SET_NO":999,"REV_AT_EPOCH":25053,"BSTAR":0.001365,"MEAN_MOTION_DOT":0.00419564,"MEAN_MOTION_DDOT":7.676e-5},{"OBJECT_NAME":"LEMUR-2-TOMHENDERSON","OBJECT_ID":"2018-046H","EPOCH":"2023-01-02T19:36:19.706400","MEAN_MOTION":15.70497898,"ECCENTRICITY":0.0005703,"INCLINATION":51.636,"RA_OF_ASC_NODE":256.6066,"ARG_OF_PERICENTER":102.1811,"MEAN_ANOMALY":257.9826,"EPHEMERIS_TYPE":0,"CLASSIFICATION_TYPE":"U","NORAD_CAT_ID":43561,"ELEMENT_SET_NO":999,"REV_AT_EPOCH":25005,"BSTAR":0.0013762,"MEAN_MOTION_DOT":0.00175769,"MEAN_MOTION_DDOT":0},{"OBJECT_NAME":"TELSTAR 19V","OBJECT_ID":"2018-059A","EPOCH":"2023-01-02T17:16:17.023008","MEAN_MOTION":1.00272853,"ECCENTRICITY":0.0001666,"INCLINATION":0.0339,"RA_OF_ASC_NODE":162.7379,"ARG_OF_PERICENTER":42.1275,"MEAN_ANOMALY":93.2897,"EPHEMERIS_TYPE":0,"CLASSIFICATION_TYPE":"U","NORAD_CAT_ID":43562,"ELEMENT_SET_NO":999,"REV_AT_EPOCH":1649,"BSTAR":0,"MEAN_MOTION_DOT":-2.68e-6,"MEAN_MOTION_DDOT":0},{"OBJECT_NAME":"GSAT0221 (GALILEO 25)","OBJECT_ID":"2018-060A","EPOCH":"2023-01-01T03:31:47.816544","MEAN_MOTION":1.70475867,"ECCENTRICITY":0.0005616,"INCLINATION":57.2345,"RA_OF_ASC_NODE":15.8394,"ARG_OF_PERICENTER":277.645,"MEAN_ANOMALY":82.3279,"EPHEMERIS_TYPE":0,"CLASSIFICATION_TYPE":"U","NORAD_CAT_ID":43564,"ELEMENT_SET_NO":999,"REV_AT_EPOCH":2763,"BSTAR":0,"MEAN_MOTION_DOT":-8.4e-7,"MEAN_MOTION_DDOT":0},{"OBJECT_NAME":"GSAT0222 (GALILEO 26)","OBJECT_ID":"2018-060B","EPOCH":"2022-12-28T20:20:19.253184","MEAN_MOTION":1.70475745,"ECCENTRICITY":0.000514,"INCLINATION":57.2355,"RA_OF_ASC_NODE":15.9294,"ARG_OF_PERICENTER":282.0541,"MEAN_ANOMALY":77.9241,"EPHEMERIS_TYPE":0,"CLASSIFICATION_TYPE":"U","NORAD_CAT_ID":43565,"ELEMENT_SET_NO":999,"REV_AT_EPOCH":2762,"BSTAR":0,"MEAN_MOTION_DOT":-8.2e-7,"MEAN_MOTION_DDOT":0},{"OBJECT_NAME":"GSAT0219 (GALILEO 23)","OBJECT_ID":"2018-060C","EPOCH":"2023-01-01T00:01:18.534144","MEAN_MOTION":1.70475857,"ECCENTRICITY":0.0004834,"INCLINATION":57.2369,"RA_OF_ASC_NODE":15.8461,"ARG_OF_PERICENTER":283.0363,"MEAN_ANOMALY":76.9463,"EPHEMERIS_TYPE":0,"CLASSIFICATION_TYPE":"U","NORAD_CAT_ID":43566,"ELEMENT_SET_NO":999,"REV_AT_EPOCH":2765,"BSTAR":0,"MEAN_MOTION_DOT":-8.4e-7,"MEAN_MOTION_DDOT":0},{"OBJECT_NAME":"GSAT0220 (GALILEO 24)","OBJECT_ID":"2018-060D","EPOCH":"2023-01-02T09:27:52.564896","MEAN_MOTION":1.70475866,"ECCENTRICITY":0.0005141,"INCLINATION":57.2375,"RA_OF_ASC_NODE":15.808,"ARG_OF_PERICENTER":282.2927,"MEAN_ANOMALY":77.6868,"EPHEMERIS_TYPE":0,"CLASSIFICATION_TYPE":"U","NORAD_CAT_ID":43567,"ELEMENT_SET_NO":999,"REV_AT_EPOCH":2766,"BSTAR":0,"MEAN_MOTION_DOT":-8.4e-7,"MEAN_MOTION_DDOT":0},{"OBJECT_NAME":"IRIDIUM 160","OBJECT_ID":"2018-061A","EPOCH":"2023-01-02T15:29:34.946304","MEAN_MOTION":14.34219362,"ECCENTRICITY":0.000183,"INCLINATION":86.3978,"RA_OF_ASC_NODE":223.9262,"ARG_OF_PERICENTER":81.4795,"MEAN_ANOMALY":278.6608,"EPHEMERIS_TYPE":0,"CLASSIFICATION_TYPE":"U","NORAD_CAT_ID":43569,"ELEMENT_SET_NO":999,"REV_AT_EPOCH":23255,"BSTAR":8.949e-5,"MEAN_MOTION_DOT":2.7e-6,"MEAN_MOTION_DDOT":0},{"OBJECT_NAME":"IRIDIUM 166","OBJECT_ID":"2018-061B","EPOCH":"2023-01-02T21:07:30.963072","MEAN_MOTION":14.34221211,"ECCENTRICITY":0.0002205,"INCLINATION":86.3977,"RA_OF_ASC_NODE":223.7959,"ARG_OF_PERICENTER":88.1905,"MEAN_ANOMALY":271.9544,"EPHEMERIS_TYPE":0,"CLASSIFICATION_TYPE":"U","NORAD_CAT_ID":43570,"ELEMENT_SET_NO":999,"REV_AT_EPOCH":23261,"BSTAR":8.8051e-5,"MEAN_MOTION_DOT":2.66e-6,"MEAN_MOTION_DDOT":0},{"OBJECT_NAME":"IRIDIUM 158","OBJECT_ID":"2018-061C","EPOCH":"2023-01-02T20:21:49.623264","MEAN_MOTION":14.34222971,"ECCENTRICITY":0.0002088,"INCLINATION":86.3977,"RA_OF_ASC_NODE":223.8178,"ARG_OF_PERICENTER":80.5208,"MEAN_ANOMALY":279.6223,"EPHEMERIS_TYPE":0,"CLASSIFICATION_TYPE":"U","NORAD_CAT_ID":43571,"ELEMENT_SET_NO":999,"REV_AT_EPOCH":23257,"BSTAR":9.0523e-5,"MEAN_MOTION_DOT":2.73e-6,"MEAN_MOTION_DDOT":0},{"OBJECT_NAME":"IRIDIUM 165","OBJECT_ID":"2018-061D","EPOCH":"2023-01-02T20:58:22.362816","MEAN_MOTION":14.34220839,"ECCENTRICITY":0.000217,"INCLINATION":86.398,"RA_OF_ASC_NODE":223.8299,"ARG_OF_PERICENTER":80.7659,"MEAN_ANOMALY":279.3783,"EPHEMERIS_TYPE":0,"CLASSIFICATION_TYPE":"U","NORAD_CAT_ID":43572,"ELEMENT_SET_NO":999,"REV_AT_EPOCH":23260,"BSTAR":8.8729e-5,"MEAN_MOTION_DOT":2.68e-6,"MEAN_MOTION_DDOT":0},{"OBJECT_NAME":"IRIDIUM 155","OBJECT_ID":"2018-061E","EPOCH":"2023-01-02T21:44:02.259744","MEAN_MOTION":14.34221477,"ECCENTRICITY":0.0002053,"INCLINATION":86.3975,"RA_OF_ASC_NODE":223.7473,"ARG_OF_PERICENTER":95.8502,"MEAN_ANOMALY":264.2928,"EPHEMERIS_TYPE":0,"CLASSIFICATION_TYPE":"U","NORAD_CAT_ID":43573,"ELEMENT_SET_NO":999,"REV_AT_EPOCH":23257,"BSTAR":8.9702e-5,"MEAN_MOTION_DOT":2.71e-6,"MEAN_MOTION_DDOT":0},{"OBJECT_NAME":"IRIDIUM 154","OBJECT_ID":"2018-061F","EPOCH":"2023-01-02T16:15:14.446656","MEAN_MOTION":14.3422131,"ECCENTRICITY":0.0001772,"INCLINATION":86.3979,"RA_OF_ASC_NODE":223.9152,"ARG_OF_PERICENTER":81.3788,"MEAN_ANOMALY":278.7609,"EPHEMERIS_TYPE":0,"CLASSIFICATION_TYPE":"U","NORAD_CAT_ID":43574,"ELEMENT_SET_NO":999,"REV_AT_EPOCH":23259,"BSTAR":9.0189e-5,"MEAN_MOTION_DOT":2.72e-6,"MEAN_MOTION_DDOT":0},{"OBJECT_NAME":"IRIDIUM 163","OBJECT_ID":"2018-061G","EPOCH":"2023-01-02T20:49:14.262816","MEAN_MOTION":14.34221992,"ECCENTRICITY":0.0002256,"INCLINATION":86.3977,"RA_OF_ASC_NODE":223.7901,"ARG_OF_PERICENTER":80.3166,"MEAN_ANOMALY":279.8284,"EPHEMERIS_TYPE":0,"CLASSIFICATION_TYPE":"U","NORAD_CAT_ID":43575,"ELEMENT_SET_NO":999,"REV_AT_EPOCH":23259,"BSTAR":8.7985e-5,"MEAN_MOTION_DOT":2.66e-6,"MEAN_MOTION_DDOT":0},{"OBJECT_NAME":"IRIDIUM 156","OBJECT_ID":"2018-061H","EPOCH":"2023-01-02T20:12:41.741856","MEAN_MOTION":14.34223245,"ECCENTRICITY":0.0002315,"INCLINATION":86.3975,"RA_OF_ASC_NODE":223.8062,"ARG_OF_PERICENTER":87.6498,"MEAN_ANOMALY":272.4963,"EPHEMERIS_TYPE":0,"CLASSIFICATION_TYPE":"U","NORAD_CAT_ID":43576,"ELEMENT_SET_NO":999,"REV_AT_EPOCH":23258,"BSTAR":8.6937e-5,"MEAN_MOTION_DOT":2.63e-6,"MEAN_MOTION_DDOT":0},{"OBJECT_NAME":"IRIDIUM 164","OBJECT_ID":"2018-061J","EPOCH":"2023-01-02T21:25:46.484832","MEAN_MOTION":14.34214386,"ECCENTRICITY":0.0001909,"INCLINATION":86.3979,"RA_OF_ASC_NODE":223.8061,"ARG_OF_PERICENTER":79.4051,"MEAN_ANOMALY":280.7359,"EPHEMERIS_TYPE":0,"CLASSIFICATION_TYPE":"U","NORAD_CAT_ID":43577,"ELEMENT_SET_NO":999,"REV_AT_EPOCH":23263,"BSTAR":6.7685e-5,"MEAN_MOTION_DOT":2.09e-6,"MEAN_MOTION_DDOT":0}]
