LEMUR-2-ALEXANDER       
1 43559U 18046F   23002.72818820  .00685656  23174-3  11021-2 0  9991
2 43559  51.6266 240.2177 0021551 193.7380 166.3047 16.02478133250483
LEMUR-2-YUASA           
1 43560U 18046G   23002.11660736  .00419564  76760-4  13650-2 0  9990
2 43560  51.6344 248.9254 0019089 180.4173 179.6820 15.89844463250538
LEMUR-2-TOMHENDERSON    
1 43561U 18046H   23002.81689475  .00175769  00000+0  13762-2 0  9998
2 43561  51.6360 256.6066 0005703 102.1811 257.9826 15.70497898250051
TELSTAR 19V             
1 43562U 18059A   23002.71964147 -.00000268  00000+0  00000+0 0  9994
2 43562   0.0339 162.7379 0001666  42.1275  93.2897  1.00272853 16498
GSAT0221 (GALILEO 25)   
1 43564U 18060A   23001.14708121 -.00000084  00000+0  00000+0 0  9998
2 43564  57.2345  15.8394 0005616 277.6450  82.3279  1.70475867 27633
GSAT0222 (GALILEO 26)   
1 43565U 18060B   22362.84744506 -.00000082  00000+0  00000+0 0  9990
2 43565  57.2355  15.9294 0005140 282.0541  77.9241  1.70475745 27621
GSAT0219 (GALILEO 23)   
1 43566U 18060C   23001.00090896 -.00000084  00000+0  00000+0 0  9998
2 43566  57.2369  15.8461 0004834 283.0363  76.9463  1.70475857 27656
GSAT0220 (GALILEO 24)   
1 43567U 18060D   23002.39435839 -.00000084  00000+0  00000+0 0  9992
2 43567  57.2375  15.8080 0005141 282.2927  77.6868  1.70475866 27668
IRIDIUM 160             
1 43569U 18061A   23002.64554336  .00000270  00000+0  89490-4 0  9998
2 43569  86.3978 223.9262 0001830  81.4795 278.6608 14.34219362232551
IRIDIUM 166             
1 43570U 18061B   23002.88021948  .00000266  00000+0  88051-4 0  9991
2 43570  86.3977 223.7959 0002205  88.1905 271.9544 14.34221211232615
IRIDIUM 158             
1 43571U 18061C   23002.84849101  .00000273  00000+0  90523-4 0  9992
2 43571  86.3977 223.8178 0002088  80.5208 279.6223 14.34222971232579
IRIDIUM 165             
1 43572U 18061D   23002.87386994  .00000268  00000+0  88729-4 0  9991
2 43572  86.3980 223.8299 0002170  80.7659 279.3783 14.34220839232605
IRIDIUM 155             
1 43573U 18061E   23002.90558171  .00000271  00000+0  89702-4 0  9990
2 43573  86.3975 223.7473 0002053  95.8502 264.2928 14.34221477232576
IRIDIUM 154             
1 43574U 18061F   23002.67725054  .00000272  00000+0  90189-4 0  9993
2 43574  86.3979 223.9152 0001772  81.3788 278.7609 14.34221310232594
IRIDIUM 163             
1 43575U 18061G   23002.86752619  .00000266  00000+0  87985-4 0  9995
2 43575  86.3977 223.7901 0002256  80.3166 279.8284 14.34221992232597
IRIDIUM 156             
1 43576U 18061H   23002.84214979  .00000263  00000+0  86937-4 0  9999
2 43576  86.3975 223.8062 0002315  87.6498 272.4963 14.34223245232584
IRIDIUM 164             
1 43577U 18061J   23002.89289913  .00000209  00000+0  67685-4 0  9994
2 43577  86.3979 223.8061 0001909  79.4051 280.7359 14.34214386232633
